satname,norad_id,inclination_deg,eccentricity,mean_motion_rev_per_day,perigee_km,apogee_km,l1,l2
STARLINK-1202,45183,53.1595,0.0001484,15.30231095,474.105203257157,476.1392505957101,1 45183U 20012F   26084.69060422  .00007364  00000+0  26028-3 0  9995,2 45183  53.1595 324.9305 0001484  96.5474 263.5696 15.30231095337402
STARLINK-1216,45185,53.1592,0.0001416,15.3021708,474.1936446605632,476.1344995241807,1 45185U 20012H   26084.87708823  .00007806  00000+0  27526-3 0  9996,2 45185  53.1592 324.0430 0001416 118.0908 242.0236 15.30217080337374
STARLINK-1225,45187,53.1587,0.0001167,15.3018645,474.4557366675017,476.0553184834371,1 45187U 20012K   26084.87400431  .00001016  00000+0  46447-4 0  9993,2 45187  53.1587 324.4959 0001167  87.3671 272.7463 15.30186450337411
STARLINK-1230,45189,53.16,0.0001421,15.30203208,474.231630958343,476.17935089426464,1 45189U 20012M   26084.09971545  .00000733  00000+0  36879-4 0  9991,2 45189  53.1600 328.1531 0001421  95.0057 265.1106 15.30203208334523
STARLINK-1234,45190,53.0423,0.0005736,15.65239067,368.67909893395336,376.4234885445312,1 45190U 20012N   26084.17900492  .00053515  00000+0  53146-3 0  9996,2 45190  53.0423 249.3812 0005736 343.3615  16.7211 15.65239067338302
STARLINK-1269,45197,53.1596,0.0001296,15.30189873,474.35710863569875,476.13350532966797,1 45197U 20012V   26084.09654726  .00000555  00000+0  30861-4 0  9996,2 45197  53.1596 328.0279 0001296  96.7605 263.3543 15.30189873337272
STARLINK-1154,45198,53.0493,0.0005918,15.48434173,417.2821781330258,425.32999897263653,1 45198U 20012W   26084.31597208  .00034894  00000+0  65190-3 0  9998,2 45198  53.0493 295.3140 0005918 151.6111 208.5220 15.48434173337716
STARLINK-1199,45201,53.1568,0.0001173,15.30207018,474.3902192766218,475.9980107562051,1 45201U 20012Z   26084.06582027  .00005954  00000+0  21293-3 0  9999,2 45201  53.1568 312.4165 0001173  99.0542 261.0591 15.30207018337515
STARLINK-1209,45206,53.0463,0.0007731,15.5381402,400.35781061611306,410.8468283518996,1 45206U 20012AE  26084.76852620  .00116247  00000+0  17581-2 0  9992,2 45206  53.0463 255.9902 0007731 326.3430  33.7088 15.53814020337417
STARLINK-1231,45212,53.0435,0.0004097,15.22309209,496.05974794691156,501.6947734321202,1 45212U 20012AL  26083.98214300  .00026859  00000+0  11607-2 0  9991,2 45212  53.0435 305.4849 0004097 148.2709 211.8535 15.22309209337551
STARLINK-1271,45217,53.1567,0.0001092,15.30198951,474.46981515802054,475.9665879340382,1 45217U 20012AR  26084.32499436  .00001378  00000+0  58645-4 0  9994,2 45217  53.1567 311.3379 0001092  93.3485 266.7641 15.30198951337556
STARLINK-1191,45222,53.1601,3.14e-05,15.31411696,471.38446754581673,471.8146310011107,1 45222U 20012AW  26084.27389196  .00043595  00000+0  14211-2 0  9991,2 45222  53.1601 286.3752 0000314 142.4839 217.6184 15.31411696337903
STARLINK-1212,45223,53.0476,0.0004504,15.54971043,399.1829247397154,405.2906854633511,1 45223U 20012AX  26084.80429114  .00104891  00000+0  15247-2 0  9993,2 45223  53.0476 272.3382 0004504 188.1108 171.9829 15.54971043338145
STARLINK-1215,45225,53.1581,0.0001355,15.30190559,474.31462566345544,476.1718917135595,1 45225U 20012AZ  26084.26593782  .00001384  00000+0  58871-4 0  9993,2 45225  53.1581 285.9540 0001355  91.7619 268.3537 15.30190559337862
STARLINK-1221,45227,53.0639,0.0003635,15.42511302,436.22252823959843,441.17836906476714,1 45227U 20012BB  26084.59428999  .00017571  00000+0  40745-3 0  9993,2 45227  53.0639 194.2140 0003635  70.6357 289.5041 15.42511302339169
STARLINK-1222,45228,53.0549,0.0003405,15.50508358,412.92764270430234,417.553932977823,1 45228U 20012BC  26084.22458429  .00021915  00000+0  38438-3 0  9998,2 45228  53.0549 268.2747 0003405 131.9851 228.1447 15.50508358338030
STARLINK-1226,45229,53.1616,0.0001084,15.32119664,468.747001549802,470.2315669282252,1 45229U 20012BD  26084.87655071  .00495465  00000+0  14750-1 0  9996,2 45229  53.1616 283.3569 0001084 147.4556 212.6513 15.32119664337895
STARLINK-1227,45230,53.1577,7.08e-05,15.32071853,469.14692296171415,470.1165670160044,1 45230U 20012BE  26084.56478638  .00031590  00000+0  10136-2 0  9996,2 45230  53.1577 284.9787 0000708  55.7240 304.3828 15.32071853337968
STARLINK-1246,45235,53.1582,0.0001423,15.30192885,474.26107858662635,476.21154863168067,1 45235U 20012BK  26084.62848556  .00001299  00000+0  55989-4 0  9998,2 45235  53.1582 325.2162 0001423  92.8311 267.2852 15.30192885337412
STARLINK-1270,45237,53.0522,0.0002342,15.49451461,416.73792681326995,419.921391796488,1 45237U 20012BM  26084.78440190  .00089510  00000+0  15909-2 0  9997,2 45237  53.0522 270.5218 0002342 166.8185 193.2884 15.49451461338167
STARLINK-1279,45360,53.0425,0.0002298,15.60081164,385.8676906352721,388.97714174295197,1 45360U 20019A   26084.21531841  .00115719  00000+0  13875-2 0  9994,2 45360  53.0425  23.2103 0002298 145.8506 214.2654 15.60081164333094
STARLINK-1301,45361,53.0435,5.23e-05,15.66830645,367.62615606721374,368.3317997985041,1 45361U 20019B   26084.55274742  .00066404  00000+0  61694-3 0  9995,2 45361  53.0435  26.1112 0000523 204.8132 155.2858 15.66830645333090
STARLINK-1262,45366,53.16,0.0001424,15.29349472,476.7794904514931,478.7320487122706,1 45366U 20019G   26084.74810054  .00002016  00000+0  82206-4 0  9995,2 45366  53.1600  90.6124 0001424  88.5715 271.5449 15.29349472332217
STARLINK-1273,45367,53.0517,0.0004181,15.46397657,424.4290845733958,430.11976960873017,1 45367U 20019H   26084.70232372  .00076118  00000+0  15080-2 0  9991,2 45367  53.0517  78.5082 0004181  56.3611 303.7794 15.46397657332378
STARLINK-1277,45369,53.0503,0.0005906,15.51455104,408.46628367957055,416.487356723992,1 45369U 20019K   26084.68260199  .00090619  00000+0  14992-2 0  9991,2 45369  53.0503  75.8463 0005906  63.5314 296.6299 15.51455104332417
STARLINK-1281,45370,53.1597,0.0001426,15.30187457,474.27522746658906,476.2298141579249,1 45370U 20019L   26084.73887692 -.00001647  00000+0 -43504-4 0  9990,2 45370  53.1597  90.7413 0001426  92.6023 267.5141 15.30187457332218
STARLINK-1300,45374,53.1632,0.0001488,15.3019976,474.196007121599,476.2355649107176,1 45374U 20019Q   26084.43442754  .00000858  00000+0  41087-4 0  9992,2 45374  53.1632  92.1621 0001488  90.7456 269.3716 15.30199760332168
STARLINK-1302,45375,53.0523,0.0003723,15.56284144,395.89943518956625,400.94526128026246,1 45375U 20019R   26084.25952373  .00089776  00000+0  12469-2 0  9992,2 45375  53.0523  76.4912 0003723  15.3401 344.7722 15.56284144332368
STARLINK-1304,45376,53.0492,0.0003685,15.50689372,412.2089460707275,417.2152758655111,1 45376U 20019S   26084.25371095  .00075362  00000+0  12855-2 0  9994,2 45376  53.0492  74.8633 0003685  42.2746 317.8546 15.50689372332387
STARLINK-1305,45377,53.0435,0.0003665,15.55811358,397.311024706285,402.27924896258446,1 45377U 20019T   26084.20436216  .00088666  00000+0  12534-2 0  9992,2 45377  53.0435  57.2964 0003665 128.3092 231.8248 15.55811358332633
STARLINK-1319,45379,53.0447,0.0003036,15.67089789,365.18734180474166,369.28313182693637,1 45379U 20019V   26084.81570500  .00065926  00000+0  60611-3 0  9990,2 45379  53.0447  50.4286 0003036  95.3492 264.7870 15.67089789332789
STARLINK-1266,45383,53.0499,0.0005208,15.4779061,419.64860768859853,426.7328706617245,1 45383U 20019Z   26084.61912932  .00071874  00000+0  13580-2 0  9993,2 45383  53.0499  56.9036 0005208  72.0215 288.1359 15.47790610332662
STARLINK-1267,45384,53.0509,0.0001618,15.52385667,408.6645537232762,410.86111811017963,1 45384U 20019AA  26084.59890762  .00095022  00000+0  15202-2 0  9991,2 45384  53.0509  50.5351 0001618 356.6171   3.4827 15.52385667332754
STARLINK-1272,45386,53.0455,0.0002751,15.58687265,389.5930255766689,393.3176552823743,1 45386U 20019AC  26084.57966145  .00069749  00000+0  88930-3 0  9996,2 45386  53.0455  32.6342 0002751 154.8009 205.3137 15.58687265333005
STARLINK-1274,45387,53.0276,0.0002088,15.49559021,416.59610899398376,419.4341821299704,1 45387U 20019AD  26084.53610617  .00087639  00000+0  15523-2 0  9998,2 45387  53.0276  27.0421 0002088 265.8500  94.2269 15.49559021333071
STARLINK-1280,45388,53.0435,0.0001865,15.67449074,364.9466112270102,367.4622505807383,1 45388U 20019AE  26084.60099953  .00069393  00000+0  62831-3 0  9993,2 45388  53.0435  44.2185 0001865 108.9993 251.1224 15.67449074332836
STARLINK-1283,45389,53.0432,0.0001065,15.63088135,378.02325131274574,379.4624667227172,1 45389U 20019AF  26084.83335647 -.00018585  00000+0 -19501-3 0  9997,2 45389  53.0432  31.4561 0001065  95.5259  32.9798 15.63088135  5851
STARLINK-1284,45390,53.0482,0.0005176,15.54425714,400.3121795886691,407.3328640856744,1 45390U 20019AG  26084.63633486  .00093047  00000+0  13825-2 0  9995,2 45390  53.0482  54.0990 0005176  76.0977 284.0608 15.54425714332708
STARLINK-1297,45395,53.047,0.0005995,15.57110666,391.96300576143676,400.0852249387426,1 45395U 20019AM  26084.81436219  .00096574  00000+0  12986-2 0  9990,2 45395  53.0470  52.6593 0005995  78.9338 281.2347 15.57110666331926
STARLINK-1307,45397,53.0558,0.0003062,15.50816878,412.25991709346545,416.41962986954513,1 45397U 20019AP  26084.21801381  .00024468  00000+0  42348-3 0  9991,2 45397  53.0558  56.1918 0003062  72.0807 288.0536 15.50816878332460
STARLINK-1255,45399,53.0426,0.0001827,15.54576995,402.14354789225763,404.62151512907167,1 45399U 20019AR  26084.13124310  .00104285  00000+0  15385-2 0  9990,2 45399  53.0426  28.2621 0001827  84.7188 275.4030 15.54576995332833
STARLINK-1260,45404,53.1612,0.000124,15.30678409,472.9373598626007,474.6366370142132,1 45404U 20019AW  26084.63366354  .00056726  00000+0  18847-2 0  9990,2 45404  53.1612  55.1730 0001240  92.9943 267.1200 15.30678409332415
STARLINK-1263,45405,53.161,0.0001241,15.30177293,474.4323598610008,476.1333786725527,1 45405U 20019AX  26084.16575006 -.00001339  00000+0 -33132-4 0  9993,2 45405  53.1610  57.3857 0001241  95.2247 264.8896 15.30177293332344
